OBJECT_NAME,OBJECT_ID,EPOCH,MEAN_MOTION,ECCENTRICITY,INCLINATION,RA_OF_ASC_NODE,ARG_OF_PERICENTER,MEAN_ANOMALY,EPHEMERIS_TYPE,CLASSIFICATION_TYPE,NORAD_CAT_ID,ELEMENT_SET_NO,REV_AT_EPOCH,BSTAR,MEAN_MOTION_DOT,MEAN_MOTION_DDOT
INTELSAT 35E (IS-35E),2017-041A,2026-06-11T06:29:10.248864,1.00271003,.00017078,0.0186,323.9975,111.6838,246.7558,0,U,42818,999,3275,0,-.221E-5,0
KANOPUS-V-IK,2017-042A,2026-06-11T07:29:54.945600,15.22950401,.00017873,97.3588,67.9566,84.5866,275.5575,0,U,42825,999,49447,.85377017E-4,.1935E-4,0
NORSAT 1,2017-042B,2026-06-11T04:37:18.371136,15.14007738,.00085629,97.4439,330.0434,102.9674,257.2515,0,U,42826,999,48632,.29863799E-3,.5363E-4,0
NORSAT 2,2017-042D,2026-06-11T05:47:55.580064,15.21810578,.00107787,97.4033,335.7777,75.9362,284.3072,0,U,42828,999,48683,.39288245E-3,.8869E-4,0
TECHNOSAT,2017-042E,2026-06-11T04:46:07.920192,15.04916875,.00187857,97.4261,320.0853,113.2228,247.0979,0,U,42829,999,48580,.2180138E-3,.3039E-4,0
FLYING LAPTOP,2017-042G,2026-06-11T07:40:11.437248,15.01107587,.00192752,97.4660,318.0797,140.7203,219.5424,0,U,42831,999,48557,.26502386E-3,.3348E-4,0
WNISAT 1R,2017-042L,2026-06-11T03:52:56.899488,15.01736332,.0010427,97.4829,318.5000,167.7200,192.4281,0,U,42835,999,48560,.15563915E-3,.1969E-4,0
LEMUR-2-GREENBERG,2017-042N,2026-06-10T17:57:22.000320,15.31129963,.00091491,97.3819,342.4043,36.3346,323.8515,0,U,42837,999,48740,.48598029E-3,.14567E-3,0
LEMUR-2-ANDIS,2017-042P,2026-06-09T17:58:15.142368,15.34551135,.00087713,97.3682,341.5686,38.8690,321.3182,0,U,42838,999,48731,.63562904E-3,.21256E-3,0
LEMUR-2-MONSON,2017-042Q,2026-06-11T00:07:12.396576,15.27848617,.00068284,97.4076,342.6414,27.7700,332.3903,0,U,42839,999,48722,.46797081E-3,.12667E-3,0
LEMUR-2-FURIAUS,2017-042R,2026-06-10T09:50:59.191584,15.30030493,.00085013,97.3771,340.0388,89.8327,270.3888,0,U,42840,999,48717,.5665163E-3,.16426E-3,0
LEMUR-2-PETERG,2017-042S,2026-06-11T05:29:43.809792,15.33656035,.00037234,97.3987,347.2515,20.0355,340.1033,0,U,42841,999,48752,.53533691E-3,.17364E-3,0
LEMUR-2-DEMBITZ,2017-042T,2026-06-11T00:27:29.179008,15.30107084,.00072743,97.3820,343.6620,49.2144,310.9727,0,U,42842,999,48740,.48319505E-3,.14024E-3,0
NANOACE,2017-042V,2026-06-10T23:49:44.352480,15.24400952,.00049614,97.3736,336.3731,51.9031,308.2653,0,U,42844,999,48713,.43772967E-3,.10668E-3,0
LEMUR-2-ZACHARY,2017-042W,2026-06-11T06:01:02.558784,15.49749100,.00033231,97.3606,353.7641,55.3333,304.8231,0,U,42845,999,48828,.69805331E-3,.38823E-3,0
CORVUS BC2,2017-042X,2026-06-11T00:24:10.166976,15.06253815,.00141915,97.4050,323.6077,129.5203,230.7282,0,U,42846,999,48613,.18161414E-3,.2611E-4,0
CORVUS BC1,2017-042Y,2026-06-10T22:41:46.032288,15.06422630,.00131899,97.4079,324.3490,108.3664,251.8999,0,U,42847,999,48615,.22393883E-3,.3247E-4,0
COSMOS 2520,2017-046A,2026-06-10T13:30:18.257184,1.00271321,.00010538,0.0454,86.1390,55.6369,4.7331,0,U,42907,999,3233,0,.154E-5,0
TDRS 13,2017-047A,2026-06-11T04:38:07.713312,1.00271647,.00145035,3.4500,2.5714,105.8675,209.1996,0,U,42915,999,3228,0,-.85E-6,0
QZS-3 (MICHIBIKI-3),2017-048A,2026-06-11T00:09:41.713920,1.00267968,.00025629,0.0636,171.4245,277.5648,299.7948,0,U,42917,999,3219,0,-.331E-5,0
FORMOSAT-5,2017-049A,2026-06-11T06:14:22.132896,14.50896594,.00127062,98.2253,237.7012,100.6652,259.5974,0,U,42920,999,46581,.39186543E-4,.111E-5,0
ORS-5 SENSORSAT,2017-050A,2026-06-11T05:05:19.489632,15.00877958,.00103938,0.0472,190.7363,333.3244,195.9720,0,U,42921,999,48014,.11959816E-3,.24E-4,0
AMAZONAS 5,2017-053A,2026-06-09T07:54:55.355040,1.00270254,.00024128,0.0312,323.9850,64.7103,286.7531,0,U,42934,999,3196,0,-.266E-5,0
COSMOS 2522 [GLONASS-M],2017-055A,2026-06-10T02:01:05.325024,2.13102025,.00106792,64.0782,192.1263,240.0455,119.9210,0,U,42939,999,6782,0,.114E-5,0
ASIASAT 9,2017-057A,2026-06-11T06:58:56.063424,1.00264399,.00025391,0.0386,44.0626,23.3223,59.1383,0,U,42942,999,3180,0,0,0
YAOGAN-30 02A,2017-058A,2026-06-11T03:49:17.842656,15.03080095,.00010705,34.9975,66.0268,102.0005,258.0823,0,U,42945,999,47498,.20921243E-3,.285E-4,0
YAOGAN-30 02B,2017-058B,2026-06-11T03:43:25.759200,15.02790014,.00031459,34.9977,66.9192,265.3680,94.6669,0,U,42946,999,47495,.18710896E-3,.2526E-4,0
YAOGAN-30 02C,2017-058C,2026-06-11T03:54:16.594848,15.04482913,.00042154,34.9972,57.5095,167.3994,192.6821,0,U,42947,999,47491,.2378202E-3,.3369E-4,0
INTELSAT 37E (IS-37E),2017-059A,2026-06-11T04:36:15.391584,1.00269953,.00023834,0.0179,10.9724,91.8332,207.7944,0,U,42950,999,3200,0,-.124E-5,0
BSAT-4A,2017-059B,2026-06-09T00:10:15.784896,1.00272912,.0004164,0.0365,6.7991,58.5529,304.4340,0,U,42951,999,3171,0,-.334E-5,0
